UNKNOWN                 
1 82139U          22039.04480713  .00001252  00000+0  75642-3 0  9992
2 82139  99.1298  78.2211 0092005  19.8585 340.6127 14.06363179282281
UNKNOWN                 
1 82162U          22039.33137125  .00001577  00000+0  28309-2 0  9993
2 82162 100.3948 250.0965 0056158   1.5819 358.5477 13.42794359315333
UNKNOWN                 
1 82168U          22039.25722851  .00013622  00000+0  19692-2 0  9995
2 82168  74.0114  31.7800 0001825  71.2427 288.8945 14.76207644282043
UNKNOWN                 
1 82180U          22038.64087597  .00006098  00000+0  13089-2 0  9995
2 82180  65.6623 132.0045 0478874 197.3132 161.1122 14.06244548401814
UNKNOWN                 
1 82187U          22038.49799259  .00009293  00000+0  16805-2 0  9999
2 82187  70.9414  91.6960 0063804 179.1996 180.9268 14.65268897437001
UNKNOWN                 
1 82189U          22038.43829742  .00000139  00000+0  59497-4 0  9992
2 82189  74.0343  99.5091 0018142 271.6573  88.2501 14.33690740431077
UNKNOWN                 
1 82199U          22038.22410844  .00000378  00000+0  32659-3 0  9994
2 82199  82.9671 207.6366 0037555  61.8792 113.6463 13.83636861415337
UNKNOWN                 
1 82205U          22039.24848277  .00004101  00000+0  85182-3 0  9997
2 82205  62.9955 229.7913 0632686 156.2529 206.9129 13.80149224413392
UNKNOWN                 
1 82223U          22038.45190670  .00000821  00000+0  54343-3 0  9996
2 82223  99.3918 218.3203 0075827 264.4219  94.8295 14.03231778251320
UNKNOWN                 
1 82227U          22038.85905755  .00000003  00000+0  34710-3 0  9990
2 82227 101.8621  13.2382 0000984 221.6806 169.5509 12.41994781466879
UNKNOWN                 
1 82250U          22039.22234494  .00001436  00000+0  95737-3 0  9990
2 82250  98.9520 307.6699 0084738 158.6028 353.6200 14.00997972419362
UNKNOWN                 
1 82268U          22038.52505882  .00002307  00000+0  12078-2 0  9997
2 82268  99.1330 139.3695 0054646 342.6874  82.3040 14.14598402536669
UNKNOWN                 
1 82272U          22039.23480123  .00000087  00000+0  42408-3 0  9995
2 82272  67.5238 219.2150 0758797 283.7053  68.0645 12.32062948 98941
UNKNOWN                 
1 82284U          22039.20165690  .00003943  00000+0  15275-2 0  9999
2 82284  99.5566 199.2051 0107053 155.9830 204.6394 14.27543993470499
UNKNOWN                 
1 82285U          22039.26825091  .00002181  00000+0  21777-2 0  9991
2 82285 101.9957 166.1100 0356437 164.1638 197.0985 13.54693020404719
UNKNOWN                 
1 82295U          22039.50463358  .00000608  00000+0  26777-3 0  9991
2 82295  66.6205 220.4245 0126525 132.7271 228.4559 14.25854229379349
UNKNOWN                 
1 82298U          22039.18774973  .00002476  00000+0  12934-2 0  9990
2 82298  99.0590 130.6582 0060359 353.9541   6.0896 14.14456550366617
UNKNOWN                 
1 82303U          22039.05411122  .00006103  00000+0  13488-1 0  9992
2 82303  81.9770  58.7745 0026627 149.2120 239.2390 13.27638240325091
UNKNOWN                 
1 82311U          22039.19120240  .00000507  00000+0  80422-3 0  9990
2 82311  99.5081 137.1327 0113094 235.2700 123.7744 13.52038999360499
UNKNOWN                 
1 82314U          22039.54064289  .00022534  00000+0  92324-3 0  9990
2 82314  99.2110 159.5913 0191110 128.1816 233.6796 15.09136272330193
UNKNOWN                 
1 82320U          22039.28590300  .00001485  00000+0  54260-3 0  9995
2 82320  99.8448  79.2873 0159807 286.7669  71.6028 14.28045566427535
UNKNOWN                 
1 82322U          22038.63673972  .00003891  00000+0  93552-3 0  9992
2 82322  98.5746 111.6807 0076883  66.7793 294.1474 14.52134492360456
UNKNOWN                 
1 82363U          22039.13197259  .00000337  00000+0  62805-3 0  9991
2 82363  66.9398 314.6094 0465700 339.8466  18.4702 13.13860134105764
UNKNOWN                 
1 82369U 99025    22039.36993001  .00000363  00000+0  28352-3 0  9994
2 82369  99.0258  73.4756 0083418 245.6594 113.5842 13.97054231361159
UNKNOWN                 
1 82381U          22039.28087158  .00002800  00000+0  91169-3 0  9995
2 82381  98.4861 236.7781 0017318 122.2572 238.0297 14.39419217306949
UNKNOWN                 
1 82383U          22038.63621026  .00009399  00000+0  12793-2 0  9998
2 82383  98.2804  92.7535 0006955 117.5714 242.6204 14.78952643338798
UNKNOWN                 
1 82402U          22037.70991701  .00001699  00000+0  19295-3 0  9997
2 82402  86.6686  31.6476 0011747 156.1000 204.0772 14.85628284244918
UNKNOWN                 
1 82410U          22036.48107707  .00000085  00000+0  16213-3 0  9990
2 82410  66.6578 110.7358 0068514 244.2469 115.1519 13.76108044393175
UNKNOWN                 
1 82428U          22039.45194317  .00013436  00000+0  11821-1 0  9994
2 82428  63.1662 107.3182 0111985  25.1907 335.4540 13.82732498225539
UNKNOWN                 
1 82432U 93036    22038.20692408  .00000831  00000+0  21355-3 0  9996
2 82432  74.0096 119.2686 0065347 265.3059  94.0636 14.50640412278782
UNKNOWN                 
1 82448U          22039.51192716  .00001768  00000+0  20110-3 0  9992
2 82448  85.8786 215.7286 0009789 206.6267 153.4455 14.85588093227743
UNKNOWN                 
1 82451U          22039.28392582  .00016119  00000+0  17457-2 0  9998
2 82451  66.5382 347.4108 0270606  84.3514 278.8389 14.65141539926174
UNKNOWN                 
1 82453U          22039.55807759 -.00000008  00000+0  27348-3 0  9999
2 82453 101.9796 352.5935 0094131 286.1614  72.9105 12.39532726372191
UNKNOWN                 
1 82458U          22039.14707026  .00001393  00000+0  82248-3 0  9992
2 82458  66.5109 193.3712 0067912 234.9774 124.4928 14.09689931411447
UNKNOWN                 
1 82464U          22039.48846976  .00003672  00000+0  10698-2 0  9995
2 82464  70.9996 295.6847 0083170 149.0789  23.7753 14.42824259430975
UNKNOWN                 
1 82475U          22026.55321379  .00000743  00000+0  46450-3 0  9998
2 82475  99.1328  67.5383 0106836  87.3176 274.0215 14.05009635346881
UNKNOWN                 
1 82481U          22038.48746232  .00169106  00000+0  61343-2 0  9995
2 82481  99.0118 342.8381 0020857 200.2673 159.7736 15.27406678246145
UNKNOWN                 
1 82484U          22039.41227428 -.00000143  00000+0 -14450-3 0  9998
2 82484  99.5278 106.2721 0045398 140.4660 219.9804 13.55109303400521
UNKNOWN                 
1 82494U 93036    22038.67892598  .00002135  00000+0  55920-3 0  9991
2 82494  74.0217 193.6225 0012263 308.7575  51.2489 14.49871206278454
UNKNOWN                 
1 82500U          22036.78021643  .00001371  00000+0  81755-3 0  9999
2 82500  70.9729  58.5457 0136301  67.5220 294.0263 14.04459922420744
UNKNOWN                 
1 82517U          22039.51366476  .00005429  00000+0  15907-2 0  9990
2 82517  86.3873 321.3184 0016510 194.7465 165.3257 14.43693411220426
UNKNOWN                 
1 82524U          22039.17377198  .00001744  00000+0  78698-3 0  9996
2 82524  73.2910 300.1771 0175517 125.7331  26.8521 14.15126961377403
UNKNOWN                 
1 82529U          22038.54439907  .00000129  00000+0  26971-3 0  9991
2 82529  99.7807 152.4996 0244553  56.6137 318.2001 13.38529558401712
UNKNOWN                 
1 82545U          22039.39855108 -.00000050  00000+0 -18422-3 0  9995
2 82545  64.8840 287.4060 0179398 204.1147 155.1301 11.30779021280231
UNKNOWN                 
1 82560U          22036.00767803  .00000706  00000+0  66158-3 0  9996
2 82560 100.0411 223.9430 0009509  39.3724 118.7575 13.85598355416753
UNKNOWN                 
1 82561U          22039.35485389  .00001853  00000+0  60083-3 0  9999
2 82561  63.1161 263.1858 0496264 357.2554 177.1812 13.89013717415947
UNKNOWN                 
1 82576U          22039.03286854  .00001207  00000+0  80724-3 0  9993
2 82576  99.2581  72.5619 0115938 271.9189  86.8700 13.99783560 37299
UNKNOWN                 
1 82597U          22039.49477238  .00000723  00000+0  30212-3 0  9993
2 82597  66.7715 217.1135 0109762 269.8038  89.0483 14.28508654428139
UNKNOWN                 
1 82616U          22039.16970957  .00012848  00000+0  15605-2 0  9994
2 82616  97.2986 122.1221 0092556 256.9543 102.1326 14.80586685357773
UNKNOWN                 
1 82617U          22039.24962450  .00000339  00000+0  10115-3 0  9997
2 82617  74.0305 350.4156 0042161 279.5385  80.1010 14.46342638433733
UNKNOWN                 
1 82627U          22038.59932635  .00000248  00000+0  64428-3 0  9992
2 82627  82.4796 167.5130 0005088 325.6273  49.6256 13.13795041394298
UNKNOWN                 
1 82637U          22033.86014323  .00007495  00000+0  19170-2 0  9997
2 82637  99.5287 261.7193 0033383  38.4909 321.8653 14.50418843300021
UNKNOWN                 
1 82642U          22039.53879701  .00001271  00000+0  82978-3 0  9995
2 82642  99.0135 311.5575 0139374 174.0870 186.1980 13.99457415419412
UNKNOWN                 
1 82683U 99057    22039.40013143  .00000986  00000+0  42235-3 0  9990
2 82683  98.1066 205.4364 0228247 160.9550 200.0336 14.13773291263591
UNKNOWN                 
1 82693U          22038.25236423  .00001262  00000+0  17351-2 0  9999
2 82693 100.5429 229.6288 0047863 250.3557 109.2411 13.60427520362248
UNKNOWN                 
1 82698U          22039.38073292  .00000964  00000+0  59715-3 0  9991
2 82698  61.6061 281.9258 0737602 139.4513 226.3910 13.21625466352426
UNKNOWN                 
1 82708U          22037.89147674 -.00000032  00000+0  79523-4 0  9990
2 82708 102.1457  96.0547 0061824 233.6943 125.8427 12.87253516342557
UNKNOWN                 
1 82729U          22039.32889948  .00000037  00000+0  27338-3 0  9990
2 82729  67.9575  48.7849 0837497 250.0572 100.8384 12.16085087364452
UNKNOWN                 
1 82737U          22039.55939005  .00006202  00000+0  87335-2 0  9996
2 82737 102.9429 153.5744 0291807 336.7630  22.0515 13.41592677356048
UNKNOWN                 
1 82739U          22039.49417418  .00000769  00000+0  73063-3 0  9996
2 82739  99.0408 242.5967 0183031  73.9414 317.4753 13.76551089412686
